[Satellite]
VERSION=1.1
NAME=ORBCOMM FM106 [+]
NICKNAME=ORBCOMM FM106 [+]
TLE1=1 40088U 14040C   15055.04633441  .00000605  00000-0  18583-3 0  9999
TLE2=2 40088  47.0061  71.2857 0022119 350.2484   9.7981 14.52734153 32757
